NORAD_CAT_ID,OBJECT_NAME,OBJECT_TYPE,EPOCH,MEAN_MOTION,ECCENTRICITY,INCLINATION,RA_OF_ASC_NODE,ARG_OF_PERICENTER,MEAN_ANOMALY,BSTAR,MEAN_MOTION_DOT,MEAN_MOTION_DDOT,TLE_LINE0,TLE_LINE1,TLE_LINE2,SEMIMAJOR_AXIS,PERIOD,APOGEE,PERIGEE,DECAYED
52666.0,STARLINK-4079,PAYLOAD,2022-06-01 04:00:00,15.73211022,0.0001720999999999,53.2148,229.8738,36.1846,212.0307,0.00055065,0.00077413,0.0,0 STARLINK-4079,1 52666U 22053L   22152.16667824  .00077413  00000-0  55065-3 0  9995,2 52666  53.2148 229.8738 0001721  36.1846 212.0307 15.73211022  2919,6727.864000000001,91.533,350.88699999999994,348.571,0.0
52666.0,STARLINK-4079,PAYLOAD,2022-06-01 20:00:01,15.73247839,0.0001926,53.2146,226.5762,27.0767,39.0973,-0.00068562,-0.00095957,0.0,0 STARLINK-4079,1 52666U 22053L   22152.83334491 -.00095957  00000-0 -68562-3 0  9991,2 52666  53.2146 226.5762 0001926  27.0767  39.0973 15.73247839  3020,6727.759,91.53,350.92,348.32800000000015,0.0
52666.0,STARLINK-4079,PAYLOAD,2022-06-02 15:32:27,15.73257255,0.0002307,53.2146,222.5463,20.947,339.1644,0.000229,0.0003172,0.0,0 STARLINK-4079,1 52666U 22053L   22153.64753545  .00031720  00000-0  22900-3 0  9998,2 52666  53.2146 222.5463 0002307  20.9470 339.1644 15.73257255  3157,6727.732,91.53,351.149,348.045,0.0
52666.0,STARLINK-4079,PAYLOAD,2022-06-02 21:38:22,15.732069699999998,0.0001793,53.2146,221.289,19.9062,340.2027,4.324600000000001e-05,5.454e-05,0.0,0 STARLINK-4079,1 52666U 22053L   22153.90165429  .00005454  00000-0  43246-4 0  9997,2 52666  53.2146 221.2890 0001793  19.9062 340.2027 15.73206970  3190,6727.875,91.533,350.94699999999995,348.534,0.0
52666.0,STARLINK-4079,PAYLOAD,2022-06-03 09:50:13,15.73218938,0.0002083,53.2143,218.7729,29.4989,330.6149,0.00019959,0.00027506,0.0,0 STARLINK-4079,1 52666U 22053L   22154.40987848  .00027506  00000-0  19959-3 0  9995,2 52666  53.2143 218.7729 0002083  29.4989 330.6149 15.73218938  3270,6727.840999999999,91.532,351.108,348.305,0.0
52666.0,STARLINK-4079,PAYLOAD,2022-06-03 18:59:05,15.73241394,0.0001764999999999,53.2143,216.887,30.0403,330.0718,0.00020136,0.00027783,0.0,0 STARLINK-4079,1 52666U 22053L   22154.79103965  .00027783  00000-0  20136-3 0  9993,2 52666  53.2143 216.8870 0001765  30.0403 330.0718 15.73241394  3336,6727.776999999999,91.531,350.83,348.455,0.0
52666.0,STARLINK-4079,PAYLOAD,2022-06-04 10:13:53,15.73237228,0.0002103,53.2144,213.743,26.9019,333.2109,0.00016877,0.00023169,0.0,0 STARLINK-4079,1 52666U 22053L   22155.42631409  .00023169  00000-0  16877-3 0  9994,2 52666  53.2144 213.7430 0002103  26.9019 333.2109 15.73237228  3430,6727.7890000000025,91.531,351.069,348.23900000000015,0.0
52666.0,STARLINK-4079,PAYLOAD,2022-06-04 13:16:52,15.73139875,0.0002419,53.2143,213.1143,34.7574,325.3604,-0.00038089,-0.00053608,0.0,0 STARLINK-4079,1 52666U 22053L   22155.55338040 -.00053608  00000-0 -38089-3 0  9995,2 52666  53.2143 213.1143 0002419  34.7574 325.3604 15.73139875  3450,6728.066999999999,91.537,351.559,348.30400000000014,0.0
52666.0,STARLINK-4079,PAYLOAD,2022-06-05 20:00:01,15.71206119,0.0001959,53.2172,206.7935,24.354,24.1149,-0.0060763999999999,-0.00720135,0.0,0 STARLINK-4079,1 52666U 22053L   22156.83334491 -.00720135  00000-0 -60764-2 0  9993,2 52666  53.2172 206.7935 0001959  24.3540  24.1149 15.71206119  3659,6733.5859999999975,91.649,356.77,354.13199999999995,0.0
52666.0,STARLINK-4079,PAYLOAD,2022-06-05 22:00:00,15.71075545,0.0001961,53.2174,206.3818,27.3898,132.69299999999998,-0.0060667,-0.00715429,0.0,0 STARLINK-4079,1 52666U 22053L   22156.91667824 -.00715429  00000-0 -60667-2 0  9993,2 52666  53.2174 206.3818 0001961  27.3898 132.6930 15.71075545  1309,6733.959,91.657,357.144,354.50300000000016,0.0
52666.0,STARLINK-4079,PAYLOAD,2022-06-06 14:00:01,15.70054796,0.0001491,53.2175,203.0974,30.9348,300.6655,-0.0063174999999999,-0.00713687,0.0,0 STARLINK-4079,1 52666U 22053L   22157.58334491 -.00713687  00000-0 -63175-2 0  9999,2 52666  53.2175 203.0974 0001491  30.9348 300.6655 15.70054796  1300,6736.877,91.717,359.747,357.73800000000006,0.0
52666.0,STARLINK-4079,PAYLOAD,2022-06-06 22:00:00,15.69545396,0.0001584,53.2175,201.454,31.7077,24.734,-0.0064657,-0.00714942,0.0,0 STARLINK-4079,1 52666U 22053L   22157.91667824 -.00714942  00000-0 -64657-2 0  9996,2 52666  53.2175 201.4540 0001584  31.7077  24.7340 15.69545396  3825,6738.335,91.746,361.267,359.13199999999995,0.0
52666.0,STARLINK-4079,PAYLOAD,2022-06-07 14:00:01,15.68523406,0.0001589,53.2172,198.177,41.4723,182.8106,-0.0067039,-0.00710822,0.0,0 STARLINK-4079,1 52666U 22053L   22158.58334491 -.00710822  00000-0 -67039-2 0  9991,2 52666  53.2172 198.1770 0001589  41.4723 182.8106 15.68523406  1304,6741.261,91.806,364.198,362.055,0.0
52666.0,STARLINK-4079,PAYLOAD,2022-06-07 20:00:01,15.68146424,0.0001861,53.2174,196.947,32.4925,164.1635,-0.0069071,-0.00720288,0.0,0 STARLINK-4079,1 52666U 22053L   22158.83335648 -.00720288  00000-0 -69071-2 0  9999,2 52666  53.2174 196.9470 0001861  32.4925 164.1635 15.68146424  3961,6742.342,91.828,365.462,362.952,0.0
52666.0,STARLINK-4079,PAYLOAD,2022-06-07 22:00:00,15.68016088,0.000167,53.2174,196.5374,31.3823,275.9027,-0.0068971,-0.00715744,0.0,0 STARLINK-4079,1 52666U 22053L   22158.91667824 -.00715744  00000-0 -68971-2 0  9991,2 52666  53.2174 196.5374 0001670  31.3823 275.9027 15.68016088  1307,6742.715,91.836,365.706,363.454,0.0
52666.0,STARLINK-4079,PAYLOAD,2022-06-08 14:00:01,15.66994839,0.0001534,53.2173,193.2678,38.7957,72.6535,-0.0071595,-0.00712742,0.0,0 STARLINK-4079,1 52666U 22053L   22159.58334491 -.00712742  00000-0 -71595-2 0  9997,2 52666  53.2173 193.2678 0001534  38.7957  72.6535 15.66994839  1308,6745.645,91.896,368.545,366.475,0.0
52666.0,STARLINK-4079,PAYLOAD,2022-06-08 20:00:01,15.66613871,0.0001579,53.2176,192.0407,34.7483,47.6314,-0.0073012,-0.00715427,0.0,0 STARLINK-4079,1 52666U 22053L   22159.83334491 -.00715427  00000-0 -73012-2 0  9994,2 52666  53.2176 192.0407 0001579  34.7483  47.6314 15.66613871  4121,6746.738,91.918,369.669,367.538,0.0
52666.0,STARLINK-4079,PAYLOAD,2022-06-08 22:00:01,15.66485209,0.0001623,53.2175,191.6318,39.8036,152.8754,-0.0073136,-0.00713116,0.0,0 STARLINK-4079,1 52666U 22053L   22159.91668981 -.00713116  00000-0 -73136-2 0  9997,2 52666  53.2175 191.6318 0001623  39.8036 152.8754 15.66485209  1302,6747.108,91.926,370.068,367.878,0.0
52666.0,STARLINK-4079,PAYLOAD,2022-06-09 14:00:01,15.65467048,0.0001349,53.2172,188.3699,43.3366,309.7633,-0.0076471,-0.00715292,0.0,0 STARLINK-4079,1 52666U 22053L   22160.58334491 -.00715292  00000-0 -76471-2 0  9990,2 52666  53.2172 188.3699 0001349  43.3366 309.7633 15.65467048  1304,6750.033,91.985,372.8080000000001,370.987,0.0
52666.0,STARLINK-4079,PAYLOAD,2022-06-09 20:00:01,15.65085775,0.0001567,53.2175,187.1455,33.9677,288.6842,-0.0078009,-0.00718352,0.0,0 STARLINK-4079,1 52666U 22053L   22160.83334491 -.00718352  00000-0 -78009-2 0  9997,2 52666  53.2175 187.1455 0001567  33.9677 288.6842 15.65085775  4275,6751.129,92.008,374.052,371.936,0.0
52666.0,STARLINK-4079,PAYLOAD,2022-06-09 22:00:00,15.64955242,0.0001665,53.2173,186.7377,30.7344,41.6927,-0.0077839,-0.00713492,0.0,0 STARLINK-4079,1 52666U 22053L   22160.91667824 -.00713492  00000-0 -77839-2 0  9995,2 52666  53.2173 186.7377 0001665  30.7344  41.6927 15.64955242  1302,6751.504,92.015,374.494,372.245,0.0
52666.0,STARLINK-4079,PAYLOAD,2022-06-10 14:00:01,15.63937424,0.0001438,53.2171,183.4826,50.1277,179.1088,-0.0081351,-0.00715734,0.0,0 STARLINK-4079,1 52666U 22053L   22161.58334491 -.00715734  00000-0 -81351-2 0  9995,2 52666  53.2171 183.4826 0001438  50.1277 179.1088 15.63937424  1308,6754.433000000001,92.075,377.27,375.327,0.0
52666.0,STARLINK-4079,PAYLOAD,2022-06-10 22:00:00,15.63425454,0.000149,53.2174,181.8542,39.5421,267.1833,-0.0082718999999999,-0.00713357,0.0,0 STARLINK-4079,1 52666U 22053L   22161.91667824 -.00713357  00000-0 -82719-2 0  9999,2 52666  53.2174 181.8542 0001490  39.5421 267.1833 15.63425454  4447,6755.908,92.105,378.78,376.766,0.0
52666.0,STARLINK-4079,PAYLOAD,2022-06-11 20:00:01,15.62023038,0.0001618,53.2176,177.3882,31.643,35.0107,-0.008736,-0.0071298,0.0,0 STARLINK-4079,1 52666U 22053L   22162.83334491 -.00712980  00000-0 -87360-2 0  9990,2 52666  53.2176 177.3882 0001618  31.6430  35.0107 15.62023038  4594,6759.951,92.188,382.91,380.722,0.0
52666.0,STARLINK-4079,PAYLOAD,2022-06-11 22:00:00,15.61896735,0.0001736,53.2173,176.9821,37.2258,138.2822,-0.0088046,-0.00714894,0.0,0 STARLINK-4079,1 52666U 22053L   22162.91667824 -.00714894  00000-0 -88046-2 0  9996,2 52666  53.2173 176.9821 0001736  37.2258 138.2822 15.61896735  1307,6760.315,92.196,383.354,381.007,0.0
52666.0,STARLINK-4079,PAYLOAD,2022-06-12 14:00:01,15.60878765,0.0001476,53.2172,173.7423,39.6006,285.3634,-0.0091893,-0.00716901,0.0,0 STARLINK-4079,1 52666U 22053L   22163.58334491 -.00716901  00000-0 -91893-2 0  9996,2 52666  53.2172 173.7423 0001476  39.6006 285.3634 15.60878765  1304,6763.254,92.256,386.11800000000005,384.121,0.0
52666.0,STARLINK-4079,PAYLOAD,2022-06-12 20:00:01,15.60493701,0.0001527,53.2175,172.5264,39.1708,251.2103,-0.0092798,-0.00713559,0.0,0 STARLINK-4079,1 52666U 22053L   22163.83334491 -.00713559  00000-0 -92798-2 0  9995,2 52666  53.2175 172.5264 0001527  39.1708 251.2103 15.60493701  4745,6764.3669999999975,92.278,387.265,385.199,0.0
52666.0,STARLINK-4079,PAYLOAD,2022-06-12 22:00:00,15.603658,0.0001544,53.2173,172.1214,33.8457,4.931,-0.0093291,-0.00713797,0.0,0 STARLINK-4079,1 52666U 22053L   22163.91667824 -.00713797  00000-0 -93291-2 0  9996,2 52666  53.2173 172.1214 0001544  33.8457   4.9310 15.60365800  1305,6764.736999999999,92.286,387.646,385.557,0.0
52666.0,STARLINK-4079,PAYLOAD,2022-06-13 14:00:01,15.59348607,0.00016,53.2172,168.8888,42.2909,142.2649,-0.0097524,-0.00717264,0.0,0 STARLINK-4079,1 52666U 22053L   22164.58334491 -.00717264  00000-0 -97524-2 0  9997,2 52666  53.2172 168.8888 0001600  42.2909 142.2649 15.59348607  1307,6767.678000000001,92.346,390.626,388.46,0.0
